{"type": "FeatureCollection", "features": [ {"type": "Feature", "properties": {"norad_id": 42741, "name": "EUTELSAT 172B", "group": "eutelsat", "lat": 0.02190203288288062, "lon": -154.1201281947279, "alt_km": 35786.57148668569, "timestamp": "2025-12-14T20:40:31.439654+00:00", "meta": {"OBJECT_NAME": "EUTELSAT 172B", "OBJECT_ID": "2017-029B", "EPOCH": "2025-12-14T05:40:34.455360", "MEAN_MOTION": 1.00271195, "ECCENTRICITY": 8.89e-06, "INCLINATION": 0.044, "RA_OF_ASC_NODE": 150.7098, "ARG_OF_PERICENTER": 253.2021, "MEAN_ANOMALY": 296.3754, "EPHEMERIS_TYPE": 0, "CLASSIFICATION_TYPE": "U", "NORAD_CAT_ID": 42741, "ELEMENT_SET_NO": 999, "REV_AT_EPOCH": 3187, "BSTAR": 0, "MEAN_MOTION_DOT": 1.2e-07, "MEAN_MOTION_DDOT": 0}, "tle": {"line1": "1 42741U 17029B   25348.23650990  .00000012  00000+0  00000+0 0  9994", "line2": "2 42741   0.0440 150.7098 0000088 253.2021 296.3754  1.00271195 31870"}}, "geometry": {"type": "Point", "coordinates": [-154.1201281947279, 0.02190203288288062]}}, {"type": "Feature", "properties": {"norad_id": 44334, "name": "EUTELSAT 7C", "group": "eutelsat", "lat": -0.024521139790125015, "lon": 40.89628780534477, "alt_km": 35798.10116331987, "timestamp": "2025-12-14T20:40:31.439666+00:00", "meta": {"OBJECT_NAME": "EUTELSAT 7C", "OBJECT_ID": "2019-034B", "EPOCH": "2025-12-14T06:36:14.123808", "MEAN_MOTION": 1.00271566, "ECCENTRICITY": 0.00031451, "INCLINATION": 0.0721, "RA_OF_ASC_NODE": 177.2248, "ARG_OF_PERICENTER": 69.2885, "MEAN_ANOMALY": 302.7275, "EPHEMERIS_TYPE": 0, "CLASSIFICATION_TYPE": "U", "NORAD_CAT_ID": 44334, "ELEMENT_SET_NO": 999, "REV_AT_EPOCH": 498, "BSTAR": 0, "MEAN_MOTION_DOT": 6.6e-07, "MEAN_MOTION_DDOT": 0}, "tle": {"line1": "1 44334U 19034B   25348.27516347  .00000066  00000+0  00000+0 0  9992", "line2": "2 44334   0.0721 177.2248 0003145  69.2885 302.7275  1.00271566  4987"}}, "geometry": {"type": "Point", "coordinates": [40.89628780534477, -0.024521139790125015]}}, {"type": "Feature", "properties": {"norad_id": 44624, "name": "EUTELSAT 5 WEST B", "group": "eutelsat", "lat": 0.06934784360448164, "lon": 28.93406144759277, "alt_km": 35793.107794980475, "timestamp": "2025-12-14T20:40:31.439678+00:00", "meta": {"OBJECT_NAME": "EUTELSAT 5 WEST B", "OBJECT_ID": "2019-067A", "EPOCH": "2025-12-14T06:32:44.457792", "MEAN_MOTION": 1.00274542, "ECCENTRICITY": 0.00033436, "INCLINATION": 0.066, "RA_OF_ASC_NODE": 337.094, "ARG_OF_PERICENTER": 288.3519, "MEAN_ANOMALY": 270.9344, "EPHEMERIS_TYPE": 0, "CLASSIFICATION_TYPE": "U", "NORAD_CAT_ID": 44624, "ELEMENT_SET_NO": 999, "REV_AT_EPOCH": 2258, "BSTAR": 0, "MEAN_MOTION_DOT": -2.4e-07, "MEAN_MOTION_DDOT": 0}, "tle": {"line1": "1 44624U 19067A   25348.27273678 -.00000024  00000+0  00000+0 0  9992", "line2": "2 44624   0.0660 337.0940 0003343 288.3519 270.9344  1.00274542 22580"}}, "geometry": {"type": "Point", "coordinates": [28.93406144759277, 0.06934784360448164]}}, {"type": "Feature", "properties": {"norad_id": 45027, "name": "EUTELSAT KONNECT", "group": "eutelsat", "lat": -0.034365260333912885, "lon": 41.112290982164986, "alt_km": 35789.48686334906, "timestamp": "2025-12-14T20:40:31.439689+00:00", "meta": {"OBJECT_NAME": "EUTELSAT KONNECT", "OBJECT_ID": "2020-005B", "EPOCH": "2025-12-14T06:36:14.123808", "MEAN_MOTION": 1.0027404, "ECCENTRICITY": 0.00013895, "INCLINATION": 0.0699, "RA_OF_ASC_NODE": 98.0137, "ARG_OF_PERICENTER": 169.3111, "MEAN_ANOMALY": 282.1309, "EPHEMERIS_TYPE": 0, "CLASSIFICATION_TYPE": "U", "NORAD_CAT_ID": 45027, "ELEMENT_SET_NO": 999, "REV_AT_EPOCH": 2248, "BSTAR": 0, "MEAN_MOTION_DOT": 6.8e-07, "MEAN_MOTION_DDOT": 0}, "tle": {"line1": "1 45027U 20005B   25348.27516347  .00000068  00000+0  00000+0 0  9994", "line2": "2 45027   0.0699  98.0137 0001389 169.3111 282.1309  1.00274040 22484"}}, "geometry": {"type": "Point", "coordinates": [41.112290982164986, -0.034365260333912885]}}, {"type": "Feature", "properties": {"norad_id": 49056, "name": "EUTELSAT QUANTUM", "group": "eutelsat", "lat": 0.02996427590308974, "lon": 81.6173525111743, "alt_km": 35800.108981981066, "timestamp": "2025-12-14T20:40:31.439701+00:00", "meta": {"OBJECT_NAME": "EUTELSAT QUANTUM", "OBJECT_ID": "2021-069B", "EPOCH": "2025-12-14T05:05:00.362400", "MEAN_MOTION": 1.00273539, "ECCENTRICITY": 0.00035551, "INCLINATION": 0.0263, "RA_OF_ASC_NODE": 46.849, "ARG_OF_PERICENTER": 228.862, "MEAN_ANOMALY": 291.3822, "EPHEMERIS_TYPE": 0, "CLASSIFICATION_TYPE": "U", "NORAD_CAT_ID": 49056, "ELEMENT_SET_NO": 999, "REV_AT_EPOCH": 1607, "BSTAR": 0, "MEAN_MOTION_DOT": 1.43e-06, "MEAN_MOTION_DDOT": 0}, "tle": {"line1": "1 49056U 21069B   25348.21180975  .00000143  00000+0  00000+0 0  9993", "line2": "2 49056   0.0263  46.8490 0003555 228.8620 291.3822  1.00273539 16075"}}, "geometry": {"type": "Point", "coordinates": [81.6173525111743, 0.02996427590308974]}}, {"type": "Feature", "properties": {"norad_id": 53765, "name": "EUTELSAT KONNECT VHTS", "group": "eutelsat", "lat": -0.033742402854770995, "lon": 36.63447797911702, "alt_km": 35795.47426151431, "timestamp": "2025-12-14T20:40:31.439712+00:00", "meta": {"OBJECT_NAME": "EUTELSAT KONNECT VHTS", "OBJECT_ID": "2022-110A", "EPOCH": "2025-12-14T06:34:59.242656", "MEAN_MOTION": 1.00270447, "ECCENTRICITY": 0.00023669, "INCLINATION": 0.0638, "RA_OF_ASC_NODE": 101.7469, "ARG_OF_PERICENTER": 140.1746, "MEAN_ANOMALY": 302.751, "EPHEMERIS_TYPE": 0, "CLASSIFICATION_TYPE": "U", "NORAD_CAT_ID": 53765, "ELEMENT_SET_NO": 999, "REV_AT_EPOCH": 497, "BSTAR": 0, "MEAN_MOTION_DOT": 3.5e-07, "MEAN_MOTION_DDOT": 0}, "tle": {"line1": "1 53765U 22110A   25348.27429679  .00000035  00000+0  00000+0 0  9996", "line2": "2 53765   0.0638 101.7469 0002366 140.1746 302.7510  1.00270447  4976"}}, "geometry": {"type": "Point", "coordinates": [36.63447797911702, -0.033742402854770995]}}, {"type": "Feature", "properties": {"norad_id": 54048, "name": "EUTELSAT HOTBIRD 13F", "group": "eutelsat", "lat": 0.06288914935109545, "lon": 46.888565263928136, "alt_km": 35781.5060875607, "timestamp": "2025-12-14T20:40:31.439724+00:00", "meta": {"OBJECT_NAME": "EUTELSAT HOTBIRD 13F", "OBJECT_ID": "2022-134A", "EPOCH": "2025-12-14T04:55:16.294080", "MEAN_MOTION": 1.00264986, "ECCENTRICITY": 0.00020179, "INCLINATION": 0.0498, "RA_OF_ASC_NODE": 292.6459, "ARG_OF_PERICENTER": 73.2181, "MEAN_ANOMALY": 164.0753, "EPHEMERIS_TYPE": 0, "CLASSIFICATION_TYPE": "U", "NORAD_CAT_ID": 54048, "ELEMENT_SET_NO": 999, "REV_AT_EPOCH": 1152, "BSTAR": 0, "MEAN_MOTION_DOT": 1.04e-06, "MEAN_MOTION_DDOT": 0}, "tle": {"line1": "1 54048U 22134A   25348.20504970  .00000104  00000+0  00000+0 0  9995", "line2": "2 54048   0.0498 292.6459 0002017  73.2181 164.0753  1.00264986 11524"}}, "geometry": {"type": "Point", "coordinates": [46.888565263928136, 0.06288914935109545]}}, {"type": "Feature", "properties": {"norad_id": 54225, "name": "EUTELSAT HOTBIRD 13G", "group": "eutelsat", "lat": 0.02671602238070943, "lon": 46.88295092969071, "alt_km": 35789.98019253153, "timestamp": "2025-12-14T20:40:31.439736+00:00", "meta": {"OBJECT_NAME": "EUTELSAT HOTBIRD 13G", "OBJECT_ID": "2022-146A", "EPOCH": "2025-12-14T04:55:16.294080", "MEAN_MOTION": 1.00275616, "ECCENTRICITY": 0.0001646, "INCLINATION": 0.0492, "RA_OF_ASC_NODE": 236.0422, "ARG_OF_PERICENTER": 307.4471, "MEAN_ANOMALY": 346.4471, "EPHEMERIS_TYPE": 0, "CLASSIFICATION_TYPE": "U", "NORAD_CAT_ID": 54225, "ELEMENT_SET_NO": 999, "REV_AT_EPOCH": 561, "BSTAR": 0, "MEAN_MOTION_DOT": 1.05e-06, "MEAN_MOTION_DDOT": 0}, "tle": {"line1": "1 54225U 22146A   25348.20504970  .00000105  00000+0  00000+0 0  9996", "line2": "2 54225   0.0492 236.0422 0001646 307.4471 346.4471  1.00275616  5616"}}, "geometry": {"type": "Point", "coordinates": [46.88295092969071, 0.02671602238070943]}}, {"type": "Feature", "properties": {"norad_id": 54259, "name": "EUTELSAT 10B", "group": "eutelsat", "lat": -0.02426993372056759, "lon": 43.85632079223728, "alt_km": 35786.42000487936, "timestamp": "2025-12-14T20:40:31.439747+00:00", "meta": {"OBJECT_NAME": "EUTELSAT 10B", "OBJECT_ID": "2022-157A", "EPOCH": "2025-12-14T06:37:06.540096", "MEAN_MOTION": 1.00270811, "ECCENTRICITY": 6.513e-05, "INCLINATION": 0.0605, "RA_OF_ASC_NODE": 99.7005, "ARG_OF_PERICENTER": 36.6722, "MEAN_ANOMALY": 56.0718, "EPHEMERIS_TYPE": 0, "CLASSIFICATION_TYPE": "U", "NORAD_CAT_ID": 54259, "ELEMENT_SET_NO": 999, "REV_AT_EPOCH": 1117, "BSTAR": 0, "MEAN_MOTION_DOT": 8.6e-07, "MEAN_MOTION_DDOT": 0}, "tle": {"line1": "1 54259U 22157A   25348.27577014  .00000086  00000+0  00000+0 0  9999", "line2": "2 54259   0.0605  99.7005 0000651  36.6722  56.0718  1.00270811 11173"}}, "geometry": {"type": "Point", "coordinates": [43.85632079223728, -0.02426993372056759]}}, {"type": "Feature", "properties": {"norad_id": 59346, "name": "EUTELSAT 36D", "group": "eutelsat", "lat": 0.040999003875643106, "lon": 69.72853160880524, "alt_km": 35785.66630792046, "timestamp": "2025-12-14T20:40:31.439759+00:00", "meta": {"OBJECT_NAME": "EUTELSAT 36D", "OBJECT_ID": "2024-059A", "EPOCH": "2025-12-14T06:44:28.335264", "MEAN_MOTION": 1.0027022, "ECCENTRICITY": 4.127e-05, "INCLINATION": 0.021, "RA_OF_ASC_NODE": 354.4885, "ARG_OF_PERICENTER": 11.5594, "MEAN_ANOMALY": 214.1043, "EPHEMERIS_TYPE": 0, "CLASSIFICATION_TYPE": "U", "NORAD_CAT_ID": 59346, "ELEMENT_SET_NO": 999, "REV_AT_EPOCH": 629, "BSTAR": 0, "MEAN_MOTION_DOT": 0, "MEAN_MOTION_DDOT": 0}, "tle": {"line1": "1 59346U 24059A   25348.28088351  .00000000  00000+0  00000+0 0  9992", "line2": "2 59346   0.0210 354.4885 0000412  11.5594 214.1043  1.00270220  6297"}}, "geometry": {"type": "Point", "coordinates": [69.72853160880524, 0.040999003875643106]}}]}